OBJECT_NAME,OBJECT_ID,EPOCH,MEAN_MOTION,ECCENTRICITY,INCLINATION,RA_OF_ASC_NODE,ARG_OF_PERICENTER,MEAN_ANOMALY,EPHEMERIS_TYPE,CLASSIFICATION_TYPE,NORAD_CAT_ID,ELEMENT_SET_NO,REV_AT_EPOCH,BSTAR,MEAN_MOTION_DOT,MEAN_MOTION_DDOT
SWARM A,2013-067B,2026-07-02T16:53:09.305088,15.51249027,.0003228,87.3304,50.4744,96.7158,263.4471,0,U,39452,999,70865,.18486E-3,.10864E-3,0
SWARM C,2013-067C,2026-07-02T16:53:00.692736,15.51247929,.0003204,87.3304,49.0552,96.8469,263.3157,0,U,39453,999,70861,.18494E-3,.10868E-3,0
BRITE-CA1 (TORONTO),2014-033L,2026-07-02T14:19:42.763008,14.72702923,.0077603,97.9759,312.2426,226.8808,132.5892,0,U,40020,999,64448,.1804E-3,.1152E-4,0
OCO 2,2014-035A,2026-07-02T19:29:23.713728,14.57124289,.0001489,98.2019,124.8673,82.0449,278.0919,0,U,40059,999,63832,.11787E-3,.486E-5,0
BRITE-PL2 (HEWELIUSZ),2014-049B,2026-07-02T13:41:19.948992,14.94649737,.0015079,97.9112,295.6901,61.6638,298.6101,0,U,40119,999,64374,.18404E-3,.1939E-4,0
MMS 1,2015-011A,2026-07-02T18:00:02.000160,0.28325921,.8316573,72.3263,348.5925,167.6713,86.4321,0,U,40482,999,139,0,-.929E-5,0
MMS 2,2015-011B,2026-07-02T18:00:02.000160,0.28325848,.8319425,72.3319,348.5909,167.6749,86.4199,0,U,40483,999,139,0,-.929E-5,0
MMS 3,2015-011C,2026-07-02T18:00:02.000160,0.28325896,.8317749,72.3299,348.6034,167.6820,86.3958,0,U,40484,999,139,0,-.928E-5,0
MMS 4,2015-011D,2026-07-02T18:00:02.000160,0.28325900,.8317705,72.3279,348.5860,167.6922,86.3877,0,U,40485,999,139,0,-.929E-5,0
ASTROSAT,2015-052A,2026-07-02T03:51:15.719040,14.82533398,.00085641,5.9977,47.5602,250.6263,109.2939,0,U,40930,999,58205,.13028684E-3,.1744E-4,0
DAMPE,2015-078A,2026-07-02T18:59:16.274976,15.30826700,.0012905,97.4554,189.3349,28.2788,331.9151,0,U,41173,999,58693,.56434E-4,.1606E-4,0
PISAT,2016-059B,2026-07-02T11:16:40.498752,14.69011061,.0029647,97.8182,183.2661,153.9873,206.2831,0,U,41784,999,52198,.19878E-3,.1126E-4,0
HXMT (HUIYAN),2017-034A,2026-07-02T18:56:19.656096,15.18594574,.003274,43.0144,96.1586,245.2757,114.4682,0,U,42758,999,50003,.25602E-3,.5225E-4,0
FLYING LAPTOP,2017-042G,2026-07-02T18:47:23.844768,15.01250097,.0020006,97.4760,338.7224,71.9828,288.3575,0,U,42831,999,48879,.50145E-3,.6414E-4,0
ZHANGHENG 1-01 (CSES-1),2018-015C,2026-07-02T17:33:41.876352,15.21016702,.0017757,97.6884,349.7003,209.0729,150.9519,0,U,43194,999,46700,.37408E-3,.8263E-4,0
SALSAT,2020-068K,2026-07-02T06:06:00.402048,15.30013367,.0008038,97.8847,187.2381,243.7769,116.2645,0,U,46495,999,31766,.29987E-3,.8637E-4,0
IXPE,2021-121A,2026-07-02T20:00:03.000384,15.10398172,.0007402,0.2291,199.3466,314.3757,346.9059,0,U,49954,999,582,.86354E-3,.15577E-3,0
SMILE,2026-109A,2026-06-07T09:11:54.544416,7.54049028,.3310191,69.9787,209.3069,288.5544,45.7342,0,U,69123,999,248,-.36778157E-3,-.41E-6,0
