[{"name":"SWARM A","l1":"1 39452U 13067B   26183.70357992  .00010864  00000+0  18486-3 0  9990","l2":"2 39452  87.3304  50.4744 0003228  96.7158 263.4471 15.51249027708654","cat":"science"},{"name":"SWARM C","l1":"1 39453U 13067C   26183.70348024  .00010868  00000+0  18494-3 0  9990","l2":"2 39453  87.3304  49.0552 0003204  96.8469 263.3157 15.51247929708611","cat":"science"},{"name":"BRITE-CA1 (TORONTO)","l1":"1 40020U 14033L   26183.59702272  .00001152  00000+0  18040-3 0  9995","l2":"2 40020  97.9759 312.2426 0077603 226.8808 132.5892 14.72702923644484","cat":"science"},{"name":"OCO 2","l1":"1 40059U 14035A   26183.81208002  .00000486  00000+0  11787-3 0  9996","l2":"2 40059  98.2019 124.8673 0001489  82.0449 278.0919 14.57124289638320","cat":"science"},{"name":"BRITE-PL2 (HEWELIUSZ)","l1":"1 40119U 14049B   26183.57036978  .00001939  00000+0  18404-3 0  9999","l2":"2 40119  97.9112 295.6901 0015079  61.6638 298.6101 14.94649737643745","cat":"science"},{"name":"MMS 1","l1":"1 40482U 15011A   26183.75002315 -.00000929  00000+0  00000+0 0  9998","l2":"2 40482  72.3263 348.5925 8316573 167.6713  86.4321  0.28325921  1392","cat":"science"},{"name":"MMS 2","l1":"1 40483U 15011B   26183.75002315 -.00000929  00000+0  00000+0 0  9999","l2":"2 40483  72.3319 348.5909 8319425 167.6749  86.4199  0.28325848  1396","cat":"science"},{"name":"MMS 3","l1":"1 40484U 15011C   26183.75002315 -.00000928  00000+0  00000+0 0  9999","l2":"2 40484  72.3299 348.6034 8317749 167.6820  86.3958  0.28325896  1396","cat":"science"},{"name":"MMS 4","l1":"1 40485U 15011D   26183.75002315 -.00000929  00000+0  00000+0 0  9991","l2":"2 40485  72.3279 348.5860 8317705 167.6922  86.3877  0.28325900  1392","cat":"science"},{"name":"ASTROSAT","l1":"1 40930U 15052A   26183.16059860  .00001744  00000+0  13029-3 0  9997","l2":"2 40930   5.9977  47.5602 0008564 250.6263 109.2939 14.82533398582055","cat":"science"},{"name":"DAMPE","l1":"1 41173U 15078A   26183.79116059  .00001606  00000+0  56434-4 0  9993","l2":"2 41173  97.4554 189.3349 0012905  28.2788 331.9151 15.30826700586937","cat":"science"},{"name":"PISAT","l1":"1 41784U 16059B   26183.46991318  .00001126  00000+0  19878-3 0  9991","l2":"2 41784  97.8182 183.2661 0029647 153.9873 206.2831 14.69011061521988","cat":"science"},{"name":"HXMT (HUIYAN)","l1":"1 42758U 17034A   26183.78911639  .00005225  00000+0  25602-3 0  9996","l2":"2 42758  43.0144  96.1586 0032740 245.2757 114.4682 15.18594574500030","cat":"science"},{"name":"FLYING LAPTOP","l1":"1 42831U 17042G   26183.78291487  .00006414  00000+0  50145-3 0  9990","l2":"2 42831  97.4760 338.7224 0020006  71.9828 288.3575 15.01250097488799","cat":"science"},{"name":"ZHANGHENG 1-01 (CSES-1)","l1":"1 43194U 18015C   26183.73173468  .00008263  00000+0  37408-3 0  9998","l2":"2 43194  97.6884 349.7003 0017757 209.0729 150.9519 15.21016702467009","cat":"science"},{"name":"SALSAT","l1":"1 46495U 20068K   26183.25417132  .00008637  00000+0  29987-3 0  9990","l2":"2 46495  97.8847 187.2381 0008038 243.7769 116.2645 15.30013367317667","cat":"science"},{"name":"IXPE","l1":"1 49954U 21121A   26183.83336806  .00015577  00000+0  86354-3 0  9998","l2":"2 49954   0.2291 199.3466 0007402 314.3757 346.9059 15.10398172  5826","cat":"science"},{"name":"SMILE","l1":"1 69123U 26109A   26158.38327019 -.00000041  00000+0 -36778-3 0  9994","l2":"2 69123  69.9787 209.3069 3310191 288.5544  45.7342  7.54049028  2480","cat":"science"}]